{
  "norad_id": 58606,
  "name": "STARLINK-31082",
  "history": [
    {
      "epoch": "2026-03-28T22:00:12.021984",
      "apogee_km": 486.69178911195013,
      "perigee_km": 484.4061816788144,
      "latitude_deg": 42.96937298953042,
      "longitude_deg": 128.61335776024498,
      "semi_major_axis_km": 6863.685985395382,
      "eccentricity": 0.0001665,
      "inclination_deg": 43.0056,
      "raan_deg": 60.0724,
      "arg_perigee_deg": 253.0016,
      "mean_anomaly_deg": 107.0653,
      "mean_motion_rev_day": 15.26745514
    }
  ]
}